{
  "type": "FeatureCollection",
  "features": [
    {
      "type": "Feature",
      "properties": {
        "norad_id": 43207,
        "name": "BEIDOU-3 M4 (C22)",
        "group": "beidou",
        "lat": 53.91296240812208,
        "lon": 134.28530270078133,
        "alt_km": 21517.547618606513,
        "timestamp": "2025-12-18T21:31:51.266598+00:00",
        "meta_object_name": "BEIDOU-3 M4 (C22)",
        "meta_object_id": "2018-018A",
        "meta_epoch": "2025-12-18T05:56:14.140032",
        "meta_mean_motion": 1.86231343,
        "meta_eccentricity": 0.00041251,
        "meta_inclination": 56.4908,
        "meta_ra_of_asc_node": 69.1218,
        "meta_arg_of_pericenter": 7.109,
        "meta_mean_anomaly": 352.9257,
        "meta_ephemeris_type": 0,
        "meta_classification_type": "U",
        "meta_norad_cat_id": 43207,
        "meta_element_set_no": 999,
        "meta_rev_at_epoch": 5337,
        "meta_bstar": 0,
        "meta_mean_motion_dot": -6.5e-07,
        "meta_mean_motion_ddot": 0,
        "tle_line1": "1 43207U 18018A   25352.24738588 -.00000065  00000+0  00000+0 0  9996",
        "tle_line2": "2 43207  56.4908  69.1218 0004125   7.1090 352.9257  1.86231343 53378"
      },
      "geometry": {
        "type": "Point",
        "coordinates": [
          134.28530270078133,
          53.91296240812208
        ]
      }
    },
    {
      "type": "Feature",
      "properties": {
        "norad_id": 43208,
        "name": "BEIDOU-3 M3 (C21)",
        "group": "beidou",
        "lat": 25.4742861034887,
        "lon": 87.48970802684495,
        "alt_km": 21520.183373981512,
        "timestamp": "2025-12-18T21:31:51.266611+00:00",
        "meta_object_name": "BEIDOU-3 M3 (C21)",
        "meta_object_id": "2018-018B",
        "meta_epoch": "2025-12-18T07:32:00.650688",
        "meta_mean_motion": 1.86231513,
        "meta_eccentricity": 0.00067661,
        "meta_inclination": 56.4899,
        "meta_ra_of_asc_node": 69.1239,
        "meta_arg_of_pericenter": 315.6193,
        "meta_mean_anomaly": 44.3557,
        "meta_ephemeris_type": 0,
        "meta_classification_type": "U",
        "meta_norad_cat_id": 43208,
        "meta_element_set_no": 999,
        "meta_rev_at_epoch": 5337,
        "meta_bstar": 0,
        "meta_mean_motion_dot": -6.4e-07,
        "meta_mean_motion_ddot": 0,
        "tle_line1": "1 43208U 18018B   25352.31389642 -.00000064  00000+0  00000+0 0  9997",
        "tle_line2": "2 43208  56.4899  69.1239 0006766 315.6193  44.3557  1.86231513 53379"
      },
      "geometry": {
        "type": "Point",
        "coordinates": [
          87.48970802684495,
          25.4742861034887
        ]
      }
    },
    {
      "type": "Feature",
      "properties": {
        "norad_id": 43245,
        "name": "BEIDOU-3 M9 (C29)",
        "group": "beidou",
        "lat": -47.97151106530104,
        "lon": 178.91076501089833,
        "alt_km": 21530.42021454901,
        "timestamp": "2025-12-18T21:31:51.266623+00:00",
        "meta_object_name": "BEIDOU-3 M9 (C29)",
        "meta_object_id": "2018-029A",
        "meta_epoch": "2025-12-17T23:50:09.526848",
        "meta_mean_motion": 1.86228477,
        "meta_eccentricity": 0.00015623,
        "meta_inclination": 54.3607,
        "meta_ra_of_asc_node": 306.2844,
        "meta_arg_of_pericenter": 287.552,
        "meta_mean_anomaly": 72.4185,
        "meta_ephemeris_type": 0,
        "meta_classification_type": "U",
        "meta_norad_cat_id": 43245,
        "meta_element_set_no": 999,
        "meta_rev_at_epoch": 5252,
        "meta_bstar": 0,
        "meta_mean_motion_dot": -8.6e-07,
        "meta_mean_motion_ddot": 0,
        "tle_line1": "1 43245U 18029A   25351.99316582 -.00000086  00000+0  00000+0 0  9990",
        "tle_line2": "2 43245  54.3607 306.2844 0001562 287.5520  72.4185  1.86228477 52521"
      },
      "geometry": {
        "type": "Point",
        "coordinates": [
          178.91076501089833,
          -47.97151106530104
        ]
      }
    },
    {
      "type": "Feature",
      "properties": {
        "norad_id": 43246,
        "name": "BEIDOU-3 M10 (C30)",
        "group": "beidou",
        "lat": -50.03064620583189,
        "lon": -112.53278728991572,
        "alt_km": 21530.548363164595,
        "timestamp": "2025-12-18T21:31:51.266634+00:00",
        "meta_object_name": "BEIDOU-3 M10 (C30)",
        "meta_object_id": "2018-029B",
        "meta_epoch": "2025-12-17T09:23:40.675200",
        "meta_mean_motion": 1.8622912,
        "meta_eccentricity": 0.00041993,
        "meta_inclination": 54.3586,
        "meta_ra_of_asc_node": 306.3321,
        "meta_arg_of_pericenter": 3.5987,
        "meta_mean_anomaly": 356.3911,
        "meta_ephemeris_type": 0,
        "meta_classification_type": "U",
        "meta_norad_cat_id": 43246,
        "meta_element_set_no": 999,
        "meta_rev_at_epoch": 5249,
        "meta_bstar": 0,
        "meta_mean_motion_dot": -9e-07,
        "meta_mean_motion_ddot": 0,
        "tle_line1": "1 43246U 18029B   25351.39144300 -.00000090  00000+0  00000+0 0  9997",
        "tle_line2": "2 43246  54.3586 306.3321 0004199   3.5987 356.3911  1.86229120 52494"
      },
      "geometry": {
        "type": "Point",
        "coordinates": [
          -112.53278728991572,
          -50.03064620583189
        ]
      }
    },
    {
      "type": "Feature",
      "properties": {
        "norad_id": 43539,
        "name": "BEIDOU-2 IGSO-7 (C16)",
        "group": "beidou",
        "lat": -2.0241492584485794,
        "lon": 163.19279767402563,
        "alt_km": 35997.383171827205,
        "timestamp": "2025-12-18T21:31:51.266646+00:00",
        "meta_object_name": "BEIDOU-2 IGSO-7 (C16)",
        "meta_object_id": "2018-057A",
        "meta_epoch": "2025-12-15T07:47:07.120608",
        "meta_mean_motion": 1.00256546,
        "meta_eccentricity": 0.00926218,
        "meta_inclination": 55.1766,
        "meta_ra_of_asc_node": 164.6485,
        "meta_arg_of_pericenter": 235.2644,
        "meta_mean_anomaly": 271.8458,
        "meta_ephemeris_type": 0,
        "meta_classification_type": "U",
        "meta_norad_cat_id": 43539,
        "meta_element_set_no": 999,
        "meta_rev_at_epoch": 2728,
        "meta_bstar": 0,
        "meta_mean_motion_dot": -2.3e-07,
        "meta_mean_motion_ddot": 0,
        "tle_line1": "1 43539U 18057A   25349.32438797 -.00000023  00000+0  00000+0 0  9995",
        "tle_line2": "2 43539  55.1766 164.6485 0092621 235.2644 271.8458  1.00256546 27289"
      },
      "geometry": {
        "type": "Point",
        "coordinates": [
          163.19279767402563,
          -2.0241492584485794
        ]
      }
    },
    {
      "type": "Feature",
      "properties": {
        "norad_id": 43581,
        "name": "BEIDOU-3 M5 (C23)",
        "group": "beidou",
        "lat": 32.148605208722074,
        "lon": -18.667620393705118,
        "alt_km": 21528.84318294201,
        "timestamp": "2025-12-18T21:31:51.266658+00:00",
        "meta_object_name": "BEIDOU-3 M5 (C23)",
        "meta_object_id": "2018-062A",
        "meta_epoch": "2025-12-17T01:53:59.361792",
        "meta_mean_motion": 1.86228923,
        "meta_eccentricity": 0.00020674,
        "meta_inclination": 54.0895,
        "meta_ra_of_asc_node": 188.4955,
        "meta_arg_of_pericenter": 356.8892,
        "meta_mean_anomaly": 3.1782,
        "meta_ephemeris_type": 0,
        "meta_classification_type": "U",
        "meta_norad_cat_id": 43581,
        "meta_element_set_no": 999,
        "meta_rev_at_epoch": 5024,
        "meta_bstar": 0,
        "meta_mean_motion_dot": 1.14e-06,
        "meta_mean_motion_ddot": 0,
        "tle_line1": "1 43581U 18062A   25351.07915928  .00000114  00000+0  00000+0 0  9999",
        "tle_line2": "2 43581  54.0895 188.4955 0002067 356.8892   3.1782  1.86228923 50243"
      },
      "geometry": {
        "type": "Point",
        "coordinates": [
          -18.667620393705118,
          32.148605208722074
        ]
      }
    },
    {
      "type": "Feature",
      "properties": {
        "norad_id": 43582,
        "name": "BEIDOU-3 M6 (C24)",
        "group": "beidou",
        "lat": -38.84338928697936,
        "lon": 44.151011703084876,
        "alt_km": 21554.65098475657,
        "timestamp": "2025-12-18T21:31:51.266674+00:00",
        "meta_object_name": "BEIDOU-3 M6 (C24)",
        "meta_object_id": "2018-062B",
        "meta_epoch": "2025-12-18T00:23:12.259968",
        "meta_mean_motion": 1.86229952,
        "meta_eccentricity": 0.00078372,
        "meta_inclination": 54.0891,
        "meta_ra_of_asc_node": 188.4528,
        "meta_arg_of_pericenter": 47.7556,
        "meta_mean_anomaly": 312.3777,
        "meta_ephemeris_type": 0,
        "meta_classification_type": "U",
        "meta_norad_cat_id": 43582,
        "meta_element_set_no": 999,
        "meta_rev_at_epoch": 5026,
        "meta_bstar": 0,
        "meta_mean_motion_dot": 1.1e-06,
        "meta_mean_motion_ddot": 0,
        "tle_line1": "1 43582U 18062B   25352.01611412  .00000110  00000+0  00000+0 0  9992",
        "tle_line2": "2 43582  54.0891 188.4528 0007837  47.7556 312.3777  1.86229952 50263"
      },
      "geometry": {
        "type": "Point",
        "coordinates": [
          44.151011703084876,
          -38.84338928697936
        ]
      }
    }
  ]
}